{
  "type": "FeatureCollection",
  "features": [
    {
      "type": "Feature",
      "properties": {
        "norad_id": 66982,
        "name": "STARLINK-36113",
        "group": "last-30-days",
        "lat": -34.644127816226145,
        "lon": -19.389289157549356,
        "alt_km": 343.2339045681583,
        "timestamp": "2025-12-21T14:40:46.636395+00:00",
        "meta_object_name": "STARLINK-36113",
        "meta_object_id": "2025-288Z",
        "meta_epoch": "2025-12-21T06:00:00.999648",
        "meta_mean_motion": 15.77385434,
        "meta_eccentricity": 0.00017703,
        "meta_inclination": 43.001,
        "meta_ra_of_asc_node": 114.9503,
        "meta_arg_of_pericenter": 260.6079,
        "meta_mean_anomaly": 80.5529,
        "meta_ephemeris_type": 0,
        "meta_classification_type": "U",
        "meta_norad_cat_id": 66982,
        "meta_element_set_no": 999,
        "meta_rev_at_epoch": 319,
        "meta_bstar": -0.010454767,
        "meta_mean_motion_dot": -0.01559706,
        "meta_mean_motion_ddot": 0,
        "tle_line1": "1 66982U 25288Z   25355.25001157 -.01559706  00000+0 -10455-1 0  9997",
        "tle_line2": "2 66982  43.0010 114.9503 0001770 260.6079  80.5529 15.77385434  3198"
      },
      "geometry": {
        "type": "Point",
        "coordinates": [
          -19.389289157549356,
          -34.644127816226145
        ]
      }
    },
    {
      "type": "Feature",
      "properties": {
        "norad_id": 66983,
        "name": "STARLINK-36145",
        "group": "last-30-days",
        "lat": -36.38605628432953,
        "lon": -15.002272672998021,
        "alt_km": 343.80965483192904,
        "timestamp": "2025-12-21T14:40:46.636409+00:00",
        "meta_object_name": "STARLINK-36145",
        "meta_object_id": "2025-288AA",
        "meta_epoch": "2025-12-21T06:00:00.999648",
        "meta_mean_motion": 15.77203499,
        "meta_eccentricity": 0.0001416,
        "meta_inclination": 43.0009,
        "meta_ra_of_asc_node": 114.94,
        "meta_arg_of_pericenter": 270.0624,
        "meta_mean_anomaly": 75.2464,
        "meta_ephemeris_type": 0,
        "meta_classification_type": "U",
        "meta_norad_cat_id": 66983,
        "meta_element_set_no": 999,
        "meta_rev_at_epoch": 319,
        "meta_bstar": -0.0095693905,
        "meta_mean_motion_dot": -0.0143237,
        "meta_mean_motion_ddot": 0,
        "tle_line1": "1 66983U 25288AA  25355.25001157 -.01432370  00000+0 -95694-2 0  9994",
        "tle_line2": "2 66983  43.0009 114.9400 0001416 270.0624  75.2464 15.77203499  3190"
      },
      "geometry": {
        "type": "Point",
        "coordinates": [
          -15.002272672998021,
          -36.38605628432953
        ]
      }
    },
    {
      "type": "Feature",
      "properties": {
        "norad_id": 66984,
        "name": "STARLINK-35591",
        "group": "last-30-days",
        "lat": -35.53628004086865,
        "lon": -17.2168450156772,
        "alt_km": 343.65030949926586,
        "timestamp": "2025-12-21T14:40:46.636419+00:00",
        "meta_object_name": "STARLINK-35591",
        "meta_object_id": "2025-288AB",
        "meta_epoch": "2025-12-21T06:00:00.999648",
        "meta_mean_motion": 15.77312643,
        "meta_eccentricity": 0.00014167,
        "meta_inclination": 43.0009,
        "meta_ra_of_asc_node": 114.9447,
        "meta_arg_of_pericenter": 261.4375,
        "meta_mean_anomaly": 81.8005,
        "meta_ephemeris_type": 0,
        "meta_classification_type": "U",
        "meta_norad_cat_id": 66984,
        "meta_element_set_no": 999,
        "meta_rev_at_epoch": 319,
        "meta_bstar": -0.01034561,
        "meta_mean_motion_dot": -0.01540772,
        "meta_mean_motion_ddot": 0,
        "tle_line1": "1 66984U 25288AB  25355.25001157 -.01540772  00000+0 -10346-1 0  9991",
        "tle_line2": "2 66984  43.0009 114.9447 0001416 261.4375  81.8005 15.77312643  3195"
      },
      "geometry": {
        "type": "Point",
        "coordinates": [
          -17.2168450156772,
          -35.53628004086865
        ]
      }
    },
    {
      "type": "Feature",
      "properties": {
        "norad_id": 66985,
        "name": "STARLINK-36103",
        "group": "last-30-days",
        "lat": -37.19311651995936,
        "lon": -12.741994870795628,
        "alt_km": 343.7644910601948,
        "timestamp": "2025-12-21T14:40:46.636431+00:00",
        "meta_object_name": "STARLINK-36103",
        "meta_object_id": "2025-288AC",
        "meta_epoch": "2025-12-21T06:00:00.999648",
        "meta_mean_motion": 15.77161774,
        "meta_eccentricity": 0.0001883,
        "meta_inclination": 43.001,
        "meta_ra_of_asc_node": 114.9357,
        "meta_arg_of_pericenter": 263.3182,
        "meta_mean_anomaly": 84.0742,
        "meta_ephemeris_type": 0,
        "meta_classification_type": "U",
        "meta_norad_cat_id": 66985,
        "meta_element_set_no": 999,
        "meta_rev_at_epoch": 319,
        "meta_bstar": -0.010135697,
        "meta_mean_motion_dot": -0.01504669,
        "meta_mean_motion_ddot": 0,
        "tle_line1": "1 66985U 25288AC  25355.25001157 -.01504669  00000+0 -10136-1 0  9994",
        "tle_line2": "2 66985  43.0010 114.9357 0001883 263.3182  84.0742 15.77161774  3193"
      },
      "geometry": {
        "type": "Point",
        "coordinates": [
          -12.741994870795628,
          -37.19311651995936
        ]
      }
    },
    {
      "type": "Feature",
      "properties": {
        "norad_id": 66986,
        "name": "STARLINK-36135",
        "group": "last-30-days",
        "lat": -37.956247012622406,
        "lon": -10.43531043305289,
        "alt_km": 344.2002627404527,
        "timestamp": "2025-12-21T14:40:46.636441+00:00",
        "meta_object_name": "STARLINK-36135",
        "meta_object_id": "2025-288AD",
        "meta_epoch": "2025-12-21T06:00:00.999648",
        "meta_mean_motion": 15.77106121,
        "meta_eccentricity": 0.00016588,
        "meta_inclination": 43.0007,
        "meta_ra_of_asc_node": 114.9288,
        "meta_arg_of_pericenter": 265.3219,
        "meta_mean_anomaly": 84.154,
        "meta_ephemeris_type": 0,
        "meta_classification_type": "U",
        "meta_norad_cat_id": 66986,
        "meta_element_set_no": 999,
        "meta_rev_at_epoch": 319,
        "meta_bstar": -0.010463711,
        "meta_mean_motion_dot": -0.01543684,
        "meta_mean_motion_ddot": 0,
        "tle_line1": "1 66986U 25288AD  25355.25001157 -.01543684  00000+0 -10464-1 0  9999",
        "tle_line2": "2 66986  43.0007 114.9288 0001658 265.3219  84.1540 15.77106121  3198"
      },
      "geometry": {
        "type": "Point",
        "coordinates": [
          -10.43531043305289,
          -37.956247012622406
        ]
      }
    },
    {
      "type": "Feature",
      "properties": {
        "norad_id": 66987,
        "name": "STARLINK-36147",
        "group": "last-30-days",
        "lat": -38.66455574451282,
        "lon": -8.111066199549885,
        "alt_km": 344.332103046022,
        "timestamp": "2025-12-21T14:40:46.636451+00:00",
        "meta_object_name": "STARLINK-36147",
        "meta_object_id": "2025-288AE",
        "meta_epoch": "2025-12-21T06:00:00.999648",
        "meta_mean_motion": 15.77053646,
        "meta_eccentricity": 0.00017484,
        "meta_inclination": 43.0012,
        "meta_ra_of_asc_node": 114.9246,
        "meta_arg_of_pericenter": 266.5177,
        "meta_mean_anomaly": 84.992,
        "meta_ephemeris_type": 0,
        "meta_classification_type": "U",
        "meta_norad_cat_id": 66987,
        "meta_element_set_no": 999,
        "meta_rev_at_epoch": 319,
        "meta_bstar": -0.010525677,
        "meta_mean_motion_dot": -0.01548531,
        "meta_mean_motion_ddot": 0,
        "tle_line1": "1 66987U 25288AE  25355.25001157 -.01548531  00000+0 -10526-1 0  9995",
        "tle_line2": "2 66987  43.0012 114.9246 0001748 266.5177  84.9920 15.77053646  3198"
      },
      "geometry": {
        "type": "Point",
        "coordinates": [
          -8.111066199549885,
          -38.66455574451282
        ]
      }
    },
    {
      "type": "Feature",
      "properties": {
        "norad_id": 66988,
        "name": "YAOGAN-47",
        "group": "last-30-days",
        "lat": 12.67771309668458,
        "lon": 59.05022167886192,
        "alt_km": 497.20951394396434,
        "timestamp": "2025-12-21T14:40:46.636461+00:00",
        "meta_object_name": "YAOGAN-47",
        "meta_object_id": "2025-289A",
        "meta_epoch": "2025-12-20T02:21:43.539840",
        "meta_mean_motion": 15.23243112,
        "meta_eccentricity": 6.467e-05,
        "meta_inclination": 97.5265,
        "meta_ra_of_asc_node": 59.2376,
        "meta_arg_of_pericenter": 91.4531,
        "meta_mean_anomaly": 268.678,
        "meta_ephemeris_type": 0,
        "meta_classification_type": "U",
        "meta_norad_cat_id": 66988,
        "meta_element_set_no": 999,
        "meta_rev_at_epoch": 166,
        "meta_bstar": 0.00010945697,
        "meta_mean_motion_dot": 2.52e-05,
        "meta_mean_motion_ddot": 0,
        "tle_line1": "1 66988U 25289A   25354.09842060  .00002520  00000+0  10946-3 0  9992",
        "tle_line2": "2 66988  97.5265  59.2376 0000646  91.4531 268.6780 15.23243112  1668"
      },
      "geometry": {
        "type": "Point",
        "coordinates": [
          59.05022167886192,
          12.67771309668458
        ]
      }
    }
  ]
}